NORAD_CAT_ID,OBJECT_NAME,OBJECT_TYPE,EPOCH,MEAN_MOTION,ECCENTRICITY,INCLINATION,RA_OF_ASC_NODE,ARG_OF_PERICENTER,MEAN_ANOMALY,BSTAR,MEAN_MOTION_DOT,MEAN_MOTION_DDOT,TLE_LINE0,TLE_LINE1,TLE_LINE2,SEMIMAJOR_AXIS,PERIOD,APOGEE,PERIGEE,DECAYED
55775.0,STARLINK-5809,PAYLOAD,2024-05-10 05:08:32,14.98331163,0.0003049,69.9985,109.8534,268.4553,91.6257,3.353e-05,3.07e-06,0.0,0 STARLINK-5809,1 55775U 23028AL  24131.21426491  .00000307  00000-0  33530-4 0  9992,2 55775  69.9985 109.8534 0003049 268.4553  91.6257 14.98331163 66401,6950.189,96.107,574.173,569.935,0.0
55775.0,STARLINK-5809,PAYLOAD,2024-05-10 08:20:48,14.98332036,0.0003086,69.9986,109.5167,268.857,91.2235,6.0593e-05,6.3e-06,0.0,0 STARLINK-5809,1 55775U 23028AL  24131.34778358  .00000630  00000-0  60593-4 0  9996,2 55775  69.9986 109.5167 0003086 268.8570  91.2235 14.98332036 66429,6950.187,96.107,574.196,569.907,0.0
55775.0,STARLINK-5809,PAYLOAD,2024-05-10 22:46:01,14.98334364,0.0002565,69.9999,108.0036,277.736,82.3508,-1.0129e-05,-2.14e-06,0.0,0 STARLINK-5809,1 55775U 23028AL  24131.94862568 -.00000214  00000-0 -10129-4 0  9999,2 55775  69.9999 108.0036 0002565 277.7360  82.3508 14.98334364 66519,6950.179,96.107,573.827,570.262,0.0
55775.0,STARLINK-5809,PAYLOAD,2024-05-11 03:34:24,14.98343515,0.0002769,69.9991,107.4972,266.0677,94.0166,0.00017645,2.014e-05,0.0,0 STARLINK-5809,1 55775U 23028AL  24132.14889366  .00002014  00000-0  17645-3 0  9994,2 55775  69.9991 107.4972 0002769 266.0677  94.0166 14.98343515 66542,6950.151,96.106,573.941,570.092,0.0
55775.0,STARLINK-5809,PAYLOAD,2024-05-11 08:22:47,14.98354097,0.0002879,69.9991,106.992,272.4497,87.6332,0.00031255,3.641e-05,0.0,0 STARLINK-5809,1 55775U 23028AL  24132.34916278  .00003641  00000-0  31255-3 0  9999,2 55775  69.9991 106.9920 0002879 272.4497  87.6332 14.98354097 66575,6950.118,96.105,573.984,569.982,0.0
55775.0,STARLINK-5809,PAYLOAD,2024-05-11 22:48:00,14.983509,0.0002651,70.0008,105.4778,274.8559,85.2297,0.00018479,2.114e-05,0.0,0 STARLINK-5809,1 55775U 23028AL  24132.95000049  .00002114  00000-0  18479-3 0  9993,2 55775  70.0008 105.4778 0002651 274.8559  85.2297 14.98350900 66668,6950.128,96.106,573.836,570.151,0.0
55775.0,STARLINK-5809,PAYLOAD,2024-05-12 05:12:38,14.98274919,0.0002946,69.9989,104.8016,271.3693,88.7129,-0.00061755,-7.443e-05,0.0,0 STARLINK-5809,1 55775U 23028AL  24133.21710949 -.00007443  00000-0 -61755-3 0  9997,2 55775  69.9989 104.8016 0002946 271.3693  88.7129 14.98274919 66701,6950.363,96.111,574.276,570.181,0.0
55775.0,STARLINK-5809,PAYLOAD,2024-05-12 08:24:55,14.98267168,0.0002932,69.9991,104.4681,262.7295,97.3531,-0.00070946,-8.534e-05,0.0,0 STARLINK-5809,1 55775U 23028AL  24133.35064332 -.00008534  00000-0 -70946-3 0  9994,2 55775  69.9991 104.4681 0002932 262.7295  97.3531 14.98267168 66728,6950.387,96.111,574.29,570.214,0.0
55775.0,STARLINK-5809,PAYLOAD,2024-05-12 21:13:59,14.98290929,0.0003368,69.9997,103.1197,263.0551,97.0225,-0.00052782,-6.379e-05,0.0,0 STARLINK-5809,1 55775U 23028AL  24133.88471643 -.00006379  00000-0 -52782-3 0  9992,2 55775  69.9997 103.1197 0003368 263.0551  97.0225 14.98290929 66802,6950.314,96.11,574.52,569.838,0.0
55775.0,STARLINK-5809,PAYLOAD,2024-05-12 22:50:05,14.98317342,0.0002201,69.9999,102.9547,264.5121,95.5787,-9.672e-05,-1.246e-05,0.0,0 STARLINK-5809,1 55775U 23028AL  24133.95145227 -.00001246  00000-0 -96720-4 0  9995,2 55775  69.9999 102.9547 0002201 264.5121  95.5787 14.98317342 66810,6950.232,96.108,573.627,570.567,0.0
55775.0,STARLINK-5809,PAYLOAD,2024-05-13 05:14:37,14.98323878,0.0002073,70.0017,102.2818,216.1106,143.9913,-0.00012665,-1.603e-05,0.0,0 STARLINK-5809,1 55775U 23028AL  24134.21849078 -.00001603  00000-0 -12665-3 0  9992,2 55775  70.0017 102.2818 0002073 216.1106 143.9913 14.98323878 66855,6950.212,96.107,573.518,570.636,0.0
55775.0,STARLINK-5809,PAYLOAD,2024-05-13 08:26:53,14.98323429,0.0002015,70.0017,101.9451,216.6738,143.4283,-0.0001154,-1.469e-05,0.0,0 STARLINK-5809,1 55775U 23028AL  24134.35201186 -.00001469  00000-0 -11540-3 0  9990,2 55775  70.0017 101.9451 0002015 216.6738 143.4283 14.98323429 66875,6950.213,96.107,573.479,570.678,0.0
55775.0,STARLINK-5809,PAYLOAD,2024-05-13 14:51:25,14.98330546,0.00026,69.9995,101.2697,257.0706,103.0163,-2.8058e-05,-4.28e-06,0.0,0 STARLINK-5809,1 55775U 23028AL  24134.61904458 -.00000428  00000-0 -28058-4 0  9998,2 55775  69.9995 101.2697 0002600 257.0706 103.0163 14.98330546 66918,6950.191,96.107,573.863,570.249,0.0
55775.0,STARLINK-5809,PAYLOAD,2024-05-14 05:16:37,14.98304783,0.0002924,69.9988,99.7538,263.6865,96.3961,0.00057211,6.735e-05,0.0,0 STARLINK-5809,1 55775U 23028AL  24135.21988395  .00006735  00000-0  57211-3 0  9994,2 55775  69.9988  99.7538 0002924 263.6865  96.3961 14.98304783 67008,6950.271,96.109,574.168,570.104,0.0
55775.0,STARLINK-5809,PAYLOAD,2024-05-14 06:52:46,14.98306971,0.0002844,69.9989,99.5856,263.2744,96.8091,0.00055709,6.556e-05,0.0,0 STARLINK-5809,1 55775U 23028AL  24135.28664416  .00006556  00000-0  55709-3 0  9997,2 55775  69.9989  99.5856 0002844 263.2744  96.8091 14.98306971 67014,6950.264,96.108,574.106,570.152,0.0
55775.0,STARLINK-5809,PAYLOAD,2024-05-14 22:54:06,14.9830018,0.0002966,69.9985,97.9024,257.4542,102.6286,0.0010009,0.00011861,0.0,0 STARLINK-5809,1 55775U 23028AL  24135.95424354  .00011861  00000-0  10009-2 0  9994,2 55775  69.9985  97.9024 0002966 257.4542 102.6286 14.98300180 67114,6950.285,96.109,574.212,570.089,0.0
55775.0,STARLINK-5809,PAYLOAD,2024-05-15 03:42:29,14.98354524,0.0003022,69.9987,97.3976,261.4565,98.6252,0.00022738,2.623e-05,0.0,0 STARLINK-5809,1 55775U 23028AL  24136.15450706  .00002623  00000-0  22738-3 0  9996,2 55775  69.9987  97.3976 0003022 261.4565  98.6252 14.98354524 67141,6950.117,96.105,574.082,569.882,0.0
55775.0,STARLINK-5809,PAYLOAD,2024-05-15 06:54:45,14.98357985,0.0002879,69.999,97.0608,261.5436,98.5397,0.00026395,3.06e-05,0.0,0 STARLINK-5809,1 55775U 23028AL  24136.28802177  .00003060  00000-0  26395-3 0  9992,2 55775  69.9990  97.0608 0002879 261.5436  98.5397 14.98357985 67166,6950.106,96.105,573.972,569.97,0.0
55775.0,STARLINK-5809,PAYLOAD,2024-05-15 21:19:58,14.98346203,0.000235,70.0004,95.5443,255.6393,104.4506,3.2838e-05,2.99e-06,0.0,0 STARLINK-5809,1 55775U 23028AL  24136.88886876  .00000299  00000-0  32838-4 0  9997,2 55775  70.0004  95.5443 0002350 255.6393 104.4506 14.98346203 67255,6950.143,96.106,573.641,570.375,0.0
55775.0,STARLINK-5809,PAYLOAD,2024-05-15 22:56:06,14.98346811,0.0002467,70.0002,95.3778,251.8195,108.2696,1.5866e-05,9.6e-07,0.0,0 STARLINK-5809,1 55775U 23028AL  24136.95562815  .00000096  00000-0  15866-4 0  9996,2 55775  70.0002  95.3778 0002467 251.8195 108.2696 14.98346811 67267,6950.141,96.106,573.721,570.291,0.0
55775.0,STARLINK-5809,PAYLOAD,2024-05-16 05:20:38,14.98337743,0.0002433,70.0003,94.7037,254.0794,106.0097,-6.4003e-05,-8.57e-06,0.0,0 STARLINK-5809,1 55775U 23028AL  24137.22267344 -.00000857  00000-0 -64003-4 0  9990,2 55775  70.0003  94.7037 0002433 254.0794 106.0097 14.98337743 67302,6950.169,96.107,573.725,570.343,0.0
55775.0,STARLINK-5809,PAYLOAD,2024-05-16 14:57:25,14.983567,0.0003207,69.9989,93.6934,255.1292,104.9512,0.00010127,1.116e-05,0.0,0 STARLINK-5809,1 55775U 23028AL  24137.62321145  .00001116  00000-0  10127-3 0  9998,2 55775  69.9989  93.6934 0003207 255.1292 104.9512 14.98356700 67360,6950.11,96.105,574.204,569.746,0.0
55775.0,STARLINK-5809,PAYLOAD,2024-05-17 06:58:48,14.98323127,0.0002756,70.0002,92.01,264.975,95.1095,-0.00040376,-4.906e-05,0.0,0 STARLINK-5809,1 55775U 23028AL  24138.29083339 -.00004906  00000-0 -40376-3 0  9993,2 55775  70.0002  92.0100 0002756 264.9750  95.1095 14.98323127 67467,6950.214,96.107,573.995,570.164,0.0
55775.0,STARLINK-5809,PAYLOAD,2024-05-17 23:00:08,14.98318646,0.0003251,69.9993,90.3272,270.0499,90.0288,-0.00019625,-2.433e-05,0.0,0 STARLINK-5809,1 55775U 23028AL  24138.95843167 -.00002433  00000-0 -19625-3 0  9995,2 55775  69.9993  90.3272 0003251 270.0499  90.0288 14.98318646 67562,6950.228,96.108,574.353,569.833,0.0
55775.0,STARLINK-5809,PAYLOAD,2024-05-18 03:48:31,14.98328624,0.0003007,69.9998,89.825,263.2215,96.8601,-7.1799e-05,-9.5e-06,0.0,0 STARLINK-5809,1 55775U 23028AL  24139.15870245 -.00000950  00000-0 -71799-4 0  9998,2 55775  69.9998  89.8250 0003007 263.2215  96.8601 14.98328624 67598,6950.197,96.107,574.152,569.972,0.0
55775.0,STARLINK-5809,PAYLOAD,2024-05-18 07:00:47,14.98334966,0.0002926,70.0001,89.4868,267.24,92.8424,-2.4986e-06,-1.23e-06,0.0,0 STARLINK-5809,1 55775U 23028AL  24139.29221651 -.00000123  00000-0 -24986-5 0  9993,2 55775  70.0001  89.4868 0002926 267.2400  92.8424 14.98334966 67614,6950.178,96.107,574.076,570.009,0.0
55775.0,STARLINK-5809,PAYLOAD,2024-05-18 13:25:20,14.98330397,0.000257,70.0009,88.8148,259.9704,100.1165,-2.2893e-05,-3.66e-06,0.0,0 STARLINK-5809,1 55775U 23028AL  24139.55926088 -.00000366  00000-0 -22893-4 0  9991,2 55775  70.0009  88.8148 0002570 259.9704 100.1165 14.98330397 67659,6950.192,96.107,573.843,570.27,0.0
55775.0,STARLINK-5809,PAYLOAD,2024-05-18 23:02:08,14.98339297,0.0002856,70.0004,87.804,266.7318,93.3514,-0.00014587,-1.833e-05,0.0,0 STARLINK-5809,1 55775U 23028AL  24139.95981568 -.00001833  00000-0 -14587-3 0  9999,2 55775  70.0004  87.8040 0002856 266.7318  93.3514 14.98339297 67714,6950.164,96.106,574.014,570.044,0.0
55775.0,STARLINK-5809,PAYLOAD,2024-05-19 07:02:48,14.98327566,0.0002693,70.0003,86.961,270.7394,89.3456,0.00021477,2.47e-05,0.0,0 STARLINK-5809,1 55775U 23028AL  24140.29361152  .00002470  00000-0  21477-3 0  9991,2 55775  70.0003  86.9610 0002693 270.7394  89.3456 14.98327566 67765,6950.2,96.107,573.937,570.194,0.0
55775.0,STARLINK-5809,PAYLOAD,2024-05-19 19:51:53,14.98323991,0.0002,69.9998,85.6136,261.2348,98.8585,4.6366e-05,4.6e-06,0.0,0 STARLINK-5809,1 55775U 23028AL  24140.82770365  .00000460  00000-0  46366-4 0  9992,2 55775  69.9998  85.6136 0002000 261.2348  98.8585 14.98323991 67845,6950.211,96.107,573.467,570.686,0.0
